STARLINK-36942          
1 68030U 26040R   26077.83335648  .00089581  00000+0  46451-3 0  9994
2 68030  97.2746  26.7386 0001060  84.4831 330.5973 15.80774498  3894
STARLINK-36913          
1 68031U 26040S   26077.83335648  .00157862  00000+0  81267-3 0  9997
2 68031  97.2746  26.7406 0001665  70.6722 348.6757 15.80745233  3890
STARLINK-36935          
1 68032U 26040T   26077.83335648  .00115916  00000+0  59886-3 0  9994
2 68032  97.2771  26.7552 0002160  82.8623   6.3623 15.80779148  3990
STARLINK-36947          
1 68033U 26040U   26077.83335648  .00115499  00000+0  59721-3 0  9999
2 68033  97.2749  26.7426 0001453  65.7033 357.9183 15.80763007  3897
STARLINK-36939          
1 68034U 26040V   26077.83335648  .00089343  00000+0  46317-3 0  9995
2 68034  97.2772  26.7522 0001726 102.4398 338.2722 15.80779244  3898
STARLINK-36943          
1 68035U 26040W   26077.83335648 -.01530473  00000+0 -89101-2 0  9991
2 68035  97.2818  26.7605 0001245  93.3366   0.1232 15.81206060  3940
STARLINK-36906          
1 68036U 26040X   26077.83335648  .00025189  00000+0  13192-3 0  9990
2 68036  97.2767  26.7494 0001688  82.6526 353.7915 15.80804678  3897
STARLINK-36388          
1 68037U 26040Y   26077.83335648  .00074365  00000+0  38615-3 0  9998
2 68037  97.2775  26.7544 0001407  86.3250 358.6572 15.80788931  3848
STARLINK-36895          
1 68038U 26040Z   26077.83335648  .00057342  00000+0  29852-3 0  9998
2 68038  97.2750  26.7454 0001422  89.5504 342.6213 15.80787702  3891
STARLINK-36373          
1 68039U 26040AA  26077.83335648  .00123085  00000+0  63581-3 0  9994
2 68039  97.2748  26.7440 0001375  63.4899   4.4021 15.80763795  3840
STARLINK-36711          
1 68040U 26041A   26077.83335648  .00079694  00000+0  52026-3 0  9995
2 68040  53.1596  16.4861 0001216 105.4588 202.4869 15.75190280  3840
STARLINK-36825          
1 68041U 26041B   26077.88980737  .00193467  00000+0  95939-3 0  9991
2 68041  53.1599  16.0161 0001150 118.1368 241.9771 15.80930511  2672
