CCSDS_OMM_VERS = 2.0
CREATION_DATE  = 
ORIGINATOR     = 

OBJECT_NAME    = STARLINK-36942
OBJECT_ID      = 2026-040R
CENTER_NAME    = EARTH
REF_FRAME      = TEME
TIME_SYSTEM    = UTC
MEAN_ELEMENT_THEORY = SGP/SGP4

EPOCH          = 2026-03-18T20:00:01.999872
MEAN_MOTION    = 15.80774498
ECCENTRICITY   = .00010608
INCLINATION    = 97.2746
RA_OF_ASC_NODE = 26.7386
ARG_OF_PERICENTER = 84.4831
MEAN_ANOMALY   = 330.5973

EPHEMERIS_TYPE = 0
CLASSIFICATION_TYPE = U
NORAD_CAT_ID   = 68030
ELEMENT_SET_NO = 999
REV_AT_EPOCH   = 389
BSTAR          = .464511E-3
MEAN_MOTION_DOT = .89581E-3
MEAN_MOTION_DDOT = 0

CCSDS_OMM_VERS = 2.0
CREATION_DATE  = 
ORIGINATOR     = 

OBJECT_NAME    = STARLINK-36913
OBJECT_ID      = 2026-040S
CENTER_NAME    = EARTH
REF_FRAME      = TEME
TIME_SYSTEM    = UTC
MEAN_ELEMENT_THEORY = SGP/SGP4

EPOCH          = 2026-03-18T20:00:01.999872
MEAN_MOTION    = 15.80745233
ECCENTRICITY   = .00016653
INCLINATION    = 97.2746
RA_OF_ASC_NODE = 26.7406
ARG_OF_PERICENTER = 70.6722
MEAN_ANOMALY   = 348.6757

EPHEMERIS_TYPE = 0
CLASSIFICATION_TYPE = U
NORAD_CAT_ID   = 68031
ELEMENT_SET_NO = 999
REV_AT_EPOCH   = 389
BSTAR          = .81266836E-3
MEAN_MOTION_DOT = .157862E-2
MEAN_MOTION_DDOT = 0

CCSDS_OMM_VERS = 2.0
CREATION_DATE  = 
ORIGINATOR     = 

OBJECT_NAME    = STARLINK-36935
OBJECT_ID      = 2026-040T
CENTER_NAME    = EARTH
REF_FRAME      = TEME
TIME_SYSTEM    = UTC
MEAN_ELEMENT_THEORY = SGP/SGP4

EPOCH          = 2026-03-18T20:00:01.999872
MEAN_MOTION    = 15.80779148
ECCENTRICITY   = .000216
INCLINATION    = 97.2771
RA_OF_ASC_NODE = 26.7552
ARG_OF_PERICENTER = 82.8623
MEAN_ANOMALY   = 6.3623

EPHEMERIS_TYPE = 0
CLASSIFICATION_TYPE = U
NORAD_CAT_ID   = 68032
ELEMENT_SET_NO = 999
REV_AT_EPOCH   = 399
BSTAR          = .59886014E-3
MEAN_MOTION_DOT = .115916E-2
MEAN_MOTION_DDOT = 0

CCSDS_OMM_VERS = 2.0
CREATION_DATE  = 
ORIGINATOR     = 

OBJECT_NAME    = STARLINK-36947
OBJECT_ID      = 2026-040U
CENTER_NAME    = EARTH
REF_FRAME      = TEME
TIME_SYSTEM    = UTC
MEAN_ELEMENT_THEORY = SGP/SGP4

EPOCH          = 2026-03-18T20:00:01.999872
MEAN_MOTION    = 15.80763007
ECCENTRICITY   = .00014535
INCLINATION    = 97.2749
RA_OF_ASC_NODE = 26.7426
ARG_OF_PERICENTER = 65.7033
MEAN_ANOMALY   = 357.9183

EPHEMERIS_TYPE = 0
CLASSIFICATION_TYPE = U
NORAD_CAT_ID   = 68033
ELEMENT_SET_NO = 999
REV_AT_EPOCH   = 389
BSTAR          = .59721008E-3
MEAN_MOTION_DOT = .115499E-2
MEAN_MOTION_DDOT = 0

CCSDS_OMM_VERS = 2.0
CREATION_DATE  = 
ORIGINATOR     = 

OBJECT_NAME    = STARLINK-36939
OBJECT_ID      = 2026-040V
CENTER_NAME    = EARTH
REF_FRAME      = TEME
TIME_SYSTEM    = UTC
MEAN_ELEMENT_THEORY = SGP/SGP4

EPOCH          = 2026-03-18T20:00:01.999872
MEAN_MOTION    = 15.80779244
ECCENTRICITY   = .00017268
INCLINATION    = 97.2772
RA_OF_ASC_NODE = 26.7522
ARG_OF_PERICENTER = 102.4398
MEAN_ANOMALY   = 338.2722

EPHEMERIS_TYPE = 0
CLASSIFICATION_TYPE = U
NORAD_CAT_ID   = 68034
ELEMENT_SET_NO = 999
REV_AT_EPOCH   = 389
BSTAR          = .46317021E-3
MEAN_MOTION_DOT = .89343E-3
MEAN_MOTION_DDOT = 0

CCSDS_OMM_VERS = 2.0
CREATION_DATE  = 
ORIGINATOR     = 

OBJECT_NAME    = STARLINK-36943
OBJECT_ID      = 2026-040W
CENTER_NAME    = EARTH
REF_FRAME      = TEME
TIME_SYSTEM    = UTC
MEAN_ELEMENT_THEORY = SGP/SGP4

EPOCH          = 2026-03-18T20:00:01.999872
MEAN_MOTION    = 15.81206060
ECCENTRICITY   = .0001245
INCLINATION    = 97.2818
RA_OF_ASC_NODE = 26.7605
ARG_OF_PERICENTER = 93.3366
MEAN_ANOMALY   = 0.1232

EPHEMERIS_TYPE = 0
CLASSIFICATION_TYPE = U
NORAD_CAT_ID   = 68035
ELEMENT_SET_NO = 999
REV_AT_EPOCH   = 394
BSTAR          = -.89101195E-2
MEAN_MOTION_DOT = -.1530473E-1
MEAN_MOTION_DDOT = 0

CCSDS_OMM_VERS = 2.0
CREATION_DATE  = 
ORIGINATOR     = 

OBJECT_NAME    = STARLINK-36906
OBJECT_ID      = 2026-040X
CENTER_NAME    = EARTH
REF_FRAME      = TEME
TIME_SYSTEM    = UTC
MEAN_ELEMENT_THEORY = SGP/SGP4

EPOCH          = 2026-03-18T20:00:01.999872
MEAN_MOTION    = 15.80804678
ECCENTRICITY   = .00016883
INCLINATION    = 97.2767
RA_OF_ASC_NODE = 26.7494
ARG_OF_PERICENTER = 82.6526
MEAN_ANOMALY   = 353.7915

EPHEMERIS_TYPE = 0
CLASSIFICATION_TYPE = U
NORAD_CAT_ID   = 68036
ELEMENT_SET_NO = 999
REV_AT_EPOCH   = 389
BSTAR          = .13192482E-3
MEAN_MOTION_DOT = .25189E-3
MEAN_MOTION_DDOT = 0

CCSDS_OMM_VERS = 2.0
CREATION_DATE  = 
ORIGINATOR     = 

OBJECT_NAME    = STARLINK-36388
OBJECT_ID      = 2026-040Y
CENTER_NAME    = EARTH
REF_FRAME      = TEME
TIME_SYSTEM    = UTC
MEAN_ELEMENT_THEORY = SGP/SGP4

EPOCH          = 2026-03-18T20:00:01.999872
MEAN_MOTION    = 15.80788931
ECCENTRICITY   = .00014079
INCLINATION    = 97.2775
RA_OF_ASC_NODE = 26.7544
ARG_OF_PERICENTER = 86.3250
MEAN_ANOMALY   = 358.6572

EPHEMERIS_TYPE = 0
CLASSIFICATION_TYPE = U
NORAD_CAT_ID   = 68037
ELEMENT_SET_NO = 999
REV_AT_EPOCH   = 384
BSTAR          = .3861461E-3
MEAN_MOTION_DOT = .74365E-3
MEAN_MOTION_DDOT = 0

CCSDS_OMM_VERS = 2.0
CREATION_DATE  = 
ORIGINATOR     = 

OBJECT_NAME    = STARLINK-36895
OBJECT_ID      = 2026-040Z
CENTER_NAME    = EARTH
REF_FRAME      = TEME
TIME_SYSTEM    = UTC
MEAN_ELEMENT_THEORY = SGP/SGP4

EPOCH          = 2026-03-18T20:00:01.999872
MEAN_MOTION    = 15.80787702
ECCENTRICITY   = .00014224
INCLINATION    = 97.2750
RA_OF_ASC_NODE = 26.7454
ARG_OF_PERICENTER = 89.5504
MEAN_ANOMALY   = 342.6213

EPHEMERIS_TYPE = 0
CLASSIFICATION_TYPE = U
NORAD_CAT_ID   = 68038
ELEMENT_SET_NO = 999
REV_AT_EPOCH   = 389
BSTAR          = .29852243E-3
MEAN_MOTION_DOT = .57342E-3
MEAN_MOTION_DDOT = 0

CCSDS_OMM_VERS = 2.0
CREATION_DATE  = 
ORIGINATOR     = 

OBJECT_NAME    = STARLINK-36373
OBJECT_ID      = 2026-040AA
CENTER_NAME    = EARTH
REF_FRAME      = TEME
TIME_SYSTEM    = UTC
MEAN_ELEMENT_THEORY = SGP/SGP4

EPOCH          = 2026-03-18T20:00:01.999872
MEAN_MOTION    = 15.80763795
ECCENTRICITY   = .00013754
INCLINATION    = 97.2748
RA_OF_ASC_NODE = 26.7440
ARG_OF_PERICENTER = 63.4899
MEAN_ANOMALY   = 4.4021

EPHEMERIS_TYPE = 0
CLASSIFICATION_TYPE = U
NORAD_CAT_ID   = 68039
ELEMENT_SET_NO = 999
REV_AT_EPOCH   = 384
BSTAR          = .63581332E-3
MEAN_MOTION_DOT = .123085E-2
MEAN_MOTION_DDOT = 0

CCSDS_OMM_VERS = 2.0
CREATION_DATE  = 
ORIGINATOR     = 

OBJECT_NAME    = STARLINK-36711
OBJECT_ID      = 2026-041A
CENTER_NAME    = EARTH
REF_FRAME      = TEME
TIME_SYSTEM    = UTC
MEAN_ELEMENT_THEORY = SGP/SGP4

EPOCH          = 2026-03-18T20:00:01.999872
MEAN_MOTION    = 15.75190280
ECCENTRICITY   = .00012167
INCLINATION    = 53.1596
RA_OF_ASC_NODE = 16.4861
ARG_OF_PERICENTER = 105.4588
MEAN_ANOMALY   = 202.4869

EPHEMERIS_TYPE = 0
CLASSIFICATION_TYPE = U
NORAD_CAT_ID   = 68040
ELEMENT_SET_NO = 999
REV_AT_EPOCH   = 384
BSTAR          = .52026355E-3
MEAN_MOTION_DOT = .79694E-3
MEAN_MOTION_DDOT = 0

CCSDS_OMM_VERS = 2.0
CREATION_DATE  = 
ORIGINATOR     = 

OBJECT_NAME    = STARLINK-36825
OBJECT_ID      = 2026-041B
CENTER_NAME    = EARTH
REF_FRAME      = TEME
TIME_SYSTEM    = UTC
MEAN_ELEMENT_THEORY = SGP/SGP4

EPOCH          = 2026-03-18T21:21:19.356768
MEAN_MOTION    = 15.80930511
ECCENTRICITY   = .000115
INCLINATION    = 53.1599
RA_OF_ASC_NODE = 16.0161
ARG_OF_PERICENTER = 118.1368
MEAN_ANOMALY   = 241.9771

EPHEMERIS_TYPE = 0
CLASSIFICATION_TYPE = U
NORAD_CAT_ID   = 68041
ELEMENT_SET_NO = 999
REV_AT_EPOCH   = 267
BSTAR          = .95939206E-3
MEAN_MOTION_DOT = .193467E-2
MEAN_MOTION_DDOT = 0

